#dP2021 11 30  0  0  0.00000000      96 __u+U ITR00 FIT  IAC
## 2186 172800.00000000   900.00000000 59548 0.0000000000000
+  125   C01C02C04C05C06C07C08C09C10C11C12C13C14C16C19C20C21
+        C22C23C24C25C26C27C28C29C30C32C33C34C35C36C37C38C39
+        C40C41C42C43C44C45C46C60E01E02E03E04E05E07E08E09E11
+        E12E13E14E15E18E19E21E24E25E26E27E30E31E33E36G01G02
+        G03G04G05G06G07G08G09G10G12G13G14G15G16G17G18G19G20
+        G21G22G23G24G25G26G27G28G29G30G31G32J01J02J03J07R01
+        R02R03R04R05R06R07R08R09R10R11R12R13R14R15R16R17R18
+        R19R20R21R22R23R24  0  0  0  0  0  0  0  0  0  0  0
++        15 13 13 12  9  9 10  9  9  9  9  9  8  9  7  7  7
++         7  7  7  7  7  7  7  7  7  7  7  7  7  7  7  8  8
++         8  7  7  7  8  8  7 15  3  4  4  4  4  4  4  4  4
++         5  4  4  4  4  5  4  4  4  4  4  4  4  4  5  3  4
++         3  3  3  4  3  3  3  3  4  3  3  4  3  4  3  4  4
++         4  3  3  4  4  3  3  5  3  3  4  4  9  8  8 14  7
++         6  6  6  6 13  5  5  6 13  0  6  7  5  6  7  6  6
++         7  7  6  7 13  6  0  0  0  0  0  0  0  0  0  0  0
%c M  cc GPS ccc cccc cccc cccc cccc ccccc ccccc ccccc ccccc
%c cc cc ccc ccc cccc cccc cccc cccc ccccc ccccc ccccc ccccc
%f  0.0000000  0.000000000  0.00000000000  0.000000000000000
%f  0.0000000  0.000000000  0.00000000000  0.000000000000000
%i    0    0    0    0      0      0      0      0         0
%i    0    0    0    0      0      0      0      0         0
/* INFORMATION & ANALYSIS CENTER (IAC)            RAPID DATA
/* S/V CLOCKS ARE ALIGNED TO GNSS TIME                      
/* G:C1WC2W R:C1PC2P E:C1XC5X C:C2IC6I J:C1CC2S             
/* PCV:IGS14_2178 OL/AL:FES2004  NONE     YN ORB:CoN CLK:CoN
*  2021 11 30  7 15  0.00000000
PC01 -34390.115660  24412.269419   -300.085405   -394.796004
PC02   4452.845756  41936.300827     36.345189    850.422377
PC04 -39676.127231  14319.954901   -547.427751    271.181566
PC05  21929.046870  36018.339673    340.457855    318.277563
PC06 -10793.909674  23849.579150  33008.109358    563.144158
PC07 -14037.821264  39635.347558  -3945.028937    178.253136
PC08   2068.178520  32506.524005 -26681.846857    -63.318873
PC09  -2816.661409  24542.435247  34465.764621   -308.900789
PC10  -7785.896790  40167.486176 -10885.595246    135.699721
PC11   9831.312428  14547.632725 -21607.838411   -362.211023
PC12 -11052.645522  13881.148391 -21501.316722   -421.997711
PC13   6032.785833  34988.323775 -22391.938454   -192.875683
PC14   1578.213265  21571.198642  17674.790546    514.634027
PC16 -16665.904663  22341.597203  31698.092558      7.190765
PC19  -9353.013733 -14197.891791 -22109.997845    928.751292
PC20   5011.275262 -24747.263994 -11853.936953   -792.010695
PC21 -17268.643602  21053.512598  -6134.002152   -941.650855
PC22 -18882.387145   4964.368841 -19953.198252   -970.811376
PC23  19236.165412   6160.529855 -19246.702231   -963.464429
PC24   3497.236054  24674.368568  12514.603286   -955.928082
PC25  17208.931037  21224.969828  -5605.187827   -817.130877
PC26  -9937.009697  14039.062284  21958.257173    814.604564
PC27  19962.742705 -10748.146775  16263.715116    637.581705
PC28  27895.265774    635.584548     74.990250      3.285285
PC29 -19842.788338 -10990.088299  16252.806394    481.168880
PC30    538.029834 -15900.493494  22925.435401    487.558314
PC32  17143.626050 -21122.885296   6220.209747   -958.749448
PC33   9384.054319  14262.410094  22072.980143   -965.804847
PC34    535.992087  15937.220943 -22906.754791   -525.470946
PC35 -27885.816647    -11.553056    451.288365     24.153045
PC36 -16534.593836 -21883.619411   5199.749034   -817.997462
PC37  10938.136591 -12905.673257 -22182.556700   -901.614294
PC38  -6672.628057  27714.511454 -30991.004567    193.147750
PC39 -21292.212592  21972.658987  28935.381038     34.172165
PC40 -21143.015237  36569.753618   -370.974021    222.271785
PC41  18807.261205  -4567.878975  20149.021338   -915.474293
PC42  -5659.005829  24990.738124  11102.077298   -937.729767
PC43  19293.535065  11443.456337 -16615.499103   -957.483700
PC44 -19711.405046  11451.676370 -16081.060593    482.536286
PC45 -19132.174773  -6009.151484  19420.225680    614.321230
PC46  -4634.433808 -25020.949836 -11504.428614    -35.318496
PC60   7261.622481  41501.423288  -1649.028623     -0.407359
PE01  -8160.340539 -25995.956778  11588.255395   -527.893976
PE02   8244.874318  25888.910146 -11714.383136    263.689800
PE03   8738.351370  14686.657800  24158.113188   -501.341934
PE04 -24006.646058    116.329510 -17317.690518   -910.547566
PE05 -11936.390357  21133.439883  16936.684925   -230.089213
PE07  25397.211957 -15197.006911     47.948045   -612.490952
PE08  24138.595189   -646.724607  17105.942048   5896.703205
PE09 -25274.761171  15418.706637    143.200539   5446.257010
PE11 -19892.011862   4958.394587 -21352.131860   4986.687948
PE12 -27033.875521 -10683.704211  -5557.090252   4884.633294
PE13  20279.662885  -4500.719774  21094.681436    424.211795
PE14  25252.463845    759.117778 -10703.010384  -1658.004360
PE15  27058.188329  10667.257798   5499.445452    778.034314
PE18 -27334.365088  12166.388554  -3876.471900  -1823.078705
PE19  -6138.507631 -15990.951781 -24144.549322    440.269488
PE21   3714.592734 -28724.235196  -6131.952549   -702.516058
PE24 -14615.189403  13806.564148  21706.572831  -1253.918718
PE25  -3882.210615  28638.946746   6377.881723   -555.278544
PE26    620.352449 -17525.233315  23857.177089   -514.525467
PE27  14127.056741 -15069.969813 -21200.438783   -176.213256
PE30  15970.304668   8735.400438 -23340.538027    -71.211477
PE31 -16158.468502  -7365.444862  23694.881024   -488.732495
PE33 -17854.506607 -19508.594657  13306.950304   -461.976770
PE36  -1617.919414  16944.073537 -24208.417511   -297.202871
PG01  22310.274143  13987.124498   4393.507289    496.927826
PG02  -9964.664721 -19519.106751  15601.383111   -643.987316
PG03  13113.121065   9606.379105  20921.066018    -27.169671
PG04  21862.278949   2977.424310  14840.255817   -200.527411
PG05  -6622.103648 -22515.413908 -12452.222930    -62.789152
PG06   5344.165269 -14193.683049  21864.040949    130.459473
PG07  20611.282056   1119.944573 -16609.072355    284.871159
PG08  12960.517353  10169.739116 -20913.774052    -46.197525
PG09  25138.974178  -7026.900942   4920.242369   -361.195543
PG10 -11589.984871  19800.133755 -12996.355551   -257.641335
PG12 -11552.720495 -12354.540548  20258.075364   -133.772324
PG13  -4515.411648 -14454.437157 -21976.392393    222.237387
PG14  12773.211636 -19291.168636 -12993.316552    -47.212240
PG15 -14758.935062  -9292.548961 -20509.604486   -102.710726
PG16   1808.923532  24197.607440 -10481.348873   -432.660335
PG17  21229.218024 -13532.655907   8945.051690    540.864795
PG18 -19640.461277    -77.563636 -17931.395617    287.516078
PG19  15076.776642 -15144.534921  15398.581441     85.932795
PG20  -1567.724122 -26615.656221  -1533.970200    517.867636
PG21  20697.165202  16602.350181  -3559.811681    152.457186
PG22  11606.972665  17552.897930  16498.402792   -452.723456
PG23 -14905.978142   8959.701865 -20068.717616     27.166289
PG24 -22127.586292 -15095.816303   -533.985212    271.588876
PG25 -15233.367914    301.415664  21470.534514    248.464570
PG26  -4952.237209  25643.055519   3777.261001    160.360419
PG27   1747.535464  15285.728777 -21791.411590   -225.339788
PG28   9504.720895 -24173.023717  -5529.968704    452.740161
PG29 -25016.187896   1987.918344   8753.013895   -447.564230
PG30  13631.961298  -8826.382553 -20979.306309   -495.543521
PG31  -3852.315615  15806.722404  20790.671218   -152.690839
PG32 -17707.175548  16114.755347  11415.760137    -28.586916
PJ01 -29950.929107  29605.611494   1811.749839    116.152955
PJ02 -26719.720428  26067.582397  24633.467174     -0.223036
PJ03 -31520.219625  16898.915003 -17637.399656     -7.746471
PJ07 -25384.851742  33662.675189     45.960979     -0.027263
PR01 -15628.001975  20086.156639   1785.890835     88.808175
PR02  -2534.174735  16566.440579  19237.584087    501.764139
PR03  11275.501584   3457.807898  22659.925031     47.317264
PR04  18433.863833 -11428.768999  13456.740342    116.624360
PR05  15594.043585 -19945.659005  -3229.199066     83.359331
PR06   1169.456042 -16241.319863 -19661.778443    -18.695513
PR07 -11636.400761  -2913.409187 -22474.491848    -39.600153
PR08 -18439.159288  11502.129703 -13283.100513    -62.277706
PR09  -7815.681970 -24174.651638  -1802.054699     26.236282
PR10 -13125.825701 -17024.623352  13784.892109    -77.533458
PR11      0.000000      0.000000      0.000000 999999.999999
PR12  -2578.001746  18215.477595  17684.083567    282.594762
PR13   7318.381819  24267.568988   2827.484781    -64.189361
PR14  13213.695431  16019.515948 -14809.297060     71.551602
PR15  11126.668655  -1347.211412 -22893.598393     99.894803
PR16   1415.341555 -19302.848617 -16714.709728    -25.908479
PR17  22590.500297   8385.254664  -8286.528955    479.369724
PR18  24011.678654   1044.089512   8632.618183     98.889610
PR19  13817.359751  -6118.047118  20552.697618   -168.899449
PR20  -7444.882116 -11557.281402  21490.939144    -60.301703
PR21 -23211.997221  -7993.556931   6993.134031   -258.524225
PR22 -23597.135232   -701.018394  -9553.466276   -148.398261
PR23  -7467.131622   8789.035380 -22753.704222    -21.717135
PR24   8351.139892  11838.599155 -20966.494499     69.121412
EOF
